GORIZONT 2 [-]          
1 11440U 79062A   17345.93958370 -.00000082  00000-0  00000-0 0  9999
2 11440  12.5972 321.5355 0007677 283.4273 246.8109  1.00237696106841
